[{"OBJECT_NAME":"KINEIS-1C","OBJECT_ID":"2024-114C","EPOCH":"2026-03-10T00:10:11.544384","MEAN_MOTION":14.80409337,"ECCENTRICITY":0.00022495,"INCLINATION":97.9945,"RA_OF_ASC_NODE":93.4647,"ARG_OF_PERICENTER":117.2178,"MEAN_ANOMALY":242.9263,"EPHEMERIS_TYPE":0,"CLASSIFICATION_TYPE":"U","NORAD_CAT_ID":60081,"ELEMENT_SET_NO":999,"REV_AT_EPOCH":9270,"BSTAR":0.00020502578,"MEAN_MOTION_DOT":1.513e-5,"MEAN_MOTION_DDOT":0},{"OBJECT_NAME":"NOAA 16 DEB","OBJECT_ID":"2000-055TD","EPOCH":"2026-03-09T09:16:58.552320","MEAN_MOTION":14.75110666,"ECCENTRICITY":0.00244253,"INCLINATION":98.7712,"RA_OF_ASC_NODE":227.1584,"ARG_OF_PERICENTER":251.8519,"MEAN_ANOMALY":108.0027,"EPHEMERIS_TYPE":0,"CLASSIFICATION_TYPE":"U","NORAD_CAT_ID":42409,"ELEMENT_SET_NO":999,"REV_AT_EPOCH":52060,"BSTAR":0.004834186,"MEAN_MOTION_DOT":0.0003285,"MEAN_MOTION_DDOT":0}]
